start=new Date('2022-09-21T00:00:00.000Z').valueOf();
sats=[{"RCS_SIZE":"LARGE","MEAN_MOTION_DDOT":"0.0000000000000","APOAPSIS":"548.331","TIME_SYSTEM":"UTC","EPOCH":"2022-09-20T17:41:03.552288","INCLINATION":"53.0578","MEAN_MOTION":"15.06398612","FILE":"3578945","ELEMENT_SET_NO":"999","BSTAR":"0.00005194200000","TLE_LINE2":"2 46071  53.0578  19.7001 0001607  71.0784 289.0379 15.06398612118501","CLASSIFICATION_TYPE":"U","OBJECT_TYPE":"PAYLOAD","RA_OF_ASC_NODE":"19.7001","NORAD_CAT_ID":"46071","MEAN_ANOMALY":"289.0379","DECAY_DATE":null,"REV_AT_EPOCH":"11850","EPHEMERIS_TYPE":"0","LAUNCH_DATE":"2020-08-07","PERIAPSIS":"546.105","GP_ID":"213119866","PERIOD":"95.592","MEAN_ELEMENT_THEORY":"SGP4","SEMIMAJOR_AXIS":"6925.353","COUNTRY_CODE":"US","ECCENTRICITY":"0.00016070","MEAN_MOTION_DOT":"0.00000492","CENTER_NAME":"EARTH","OBJECT_ID":"2020-055AW","TLE_LINE1":"1 46071U 20055AW  22263.73684667  .00000492  00000-0  51942-4 0  9992","OBJECT_NAME":"STARLINK-1538","ARG_OF_PERICENTER":"71.0784","REF_FRAME":"TEME","SITE":"AFETR"},{"EPOCH":"2022-09-20T15:05:46.368960","RCS_SIZE":"LARGE","APOAPSIS":"548.387","MEAN_MOTION_DDOT":"0.0000000000000","TIME_SYSTEM":"UTC","FILE":"3578945","MEAN_MOTION":"15.06402535","ELEMENT_SET_NO":"999","INCLINATION":"53.0554","RA_OF_ASC_NODE":"20.2005","OBJECT_TYPE":"PAYLOAD","NORAD_CAT_ID":"46072","CLASSIFICATION_TYPE":"U","DECAY_DATE":null,"MEAN_ANOMALY":"277.9392","BSTAR":"0.00017283000000","TLE_LINE2":"2 46072  53.0554  20.2005 0001705  82.1790 277.9392 15.06402535118473","LAUNCH_DATE":"2020-08-07","EPHEMERIS_TYPE":"0","REV_AT_EPOCH":"11847","GP_ID":"213120615","PERIAPSIS":"546.025","ECCENTRICITY":"0.00017050","COUNTRY_CODE":"US","MEAN_MOTION_DOT":"0.00002294","SEMIMAJOR_AXIS":"6925.341","MEAN_ELEMENT_THEORY":"SGP4","PERIOD":"95.592","REF_FRAME":"TEME","CENTER_NAME":"EARTH","OBJECT_NAME":"STARLINK-1539","ARG_OF_PERICENTER":"82.1790","TLE_LINE1":"1 46072U 20055AX  22263.62900890  .00002294  00000-0  17283-3 0  9991","OBJECT_ID":"2020-055AX","SITE":"AFETR"},{"COUNTRY_CODE":"US","ECCENTRICITY":"0.00014420","MEAN_MOTION_DOT":"-0.00000385","PERIOD":"95.592","SEMIMAJOR_AXIS":"6925.343","MEAN_ELEMENT_THEORY":"SGP4","GP_ID":"213120866","PERIAPSIS":"546.210","SITE":"AFETR","REF_FRAME":"TEME","CENTER_NAME":"EARTH","OBJECT_ID":"2020-055AY","TLE_LINE1":"1 46073U 20055AY  22263.84373820 -.00000385  00000-0 -69667-5 0  9999","ARG_OF_PERICENTER":"68.7433","OBJECT_NAME":"STARLINK-1542","MEAN_MOTION":"15.06401668","FILE":"3578945","ELEMENT_SET_NO":"999","INCLINATION":"53.0555","APOAPSIS":"548.207","RCS_SIZE":"LARGE","EPOCH":"2022-09-20T20:14:58.980480","MEAN_MOTION_DDOT":"0.0000000000000","TIME_SYSTEM":"UTC","REV_AT_EPOCH":"11851","LAUNCH_DATE":"2020-08-07","EPHEMERIS_TYPE":"0","CLASSIFICATION_TYPE":"U","OBJECT_TYPE":"PAYLOAD","RA_OF_ASC_NODE":"19.2265","NORAD_CAT_ID":"46073","MEAN_ANOMALY":"291.3709","DECAY_DATE":null,"BSTAR":"-0.00000696670000","TLE_LINE2":"2 46073  53.0555  19.2265 0001442  68.7433 291.3709 15.06401668118516"},{"APOAPSIS":"548.217","RCS_SIZE":"LARGE","MEAN_MOTION_DDOT":"0.0000000000000","EPOCH":"2022-09-20T10:20:30.753600","TIME_SYSTEM":"UTC","ELEMENT_SET_NO":"999","FILE":"3578736","MEAN_MOTION":"15.06398442","INCLINATION":"53.0565","DECAY_DATE":null,"MEAN_ANOMALY":"296.6235","RA_OF_ASC_NODE":"21.0678","OBJECT_TYPE":"PAYLOAD","NORAD_CAT_ID":"46074","CLASSIFICATION_TYPE":"U","TLE_LINE2":"2 46074  53.0565  21.0678 0001442  63.4901 296.6235 15.06398442118448","BSTAR":"-0.00000724010000","LAUNCH_DATE":"2020-08-07","EPHEMERIS_TYPE":"0","REV_AT_EPOCH":"11844","GP_ID":"213069126","PERIAPSIS":"546.220","MEAN_MOTION_DOT":"-0.00000389","ECCENTRICITY":"0.00014420","COUNTRY_CODE":"US","SEMIMAJOR_AXIS":"6925.353","MEAN_ELEMENT_THEORY":"SGP4","PERIOD":"95.592","REF_FRAME":"TEME","OBJECT_NAME":"STARLINK-1549","ARG_OF_PERICENTER":"63.4901","TLE_LINE1":"1 46074U 20055AZ  22263.43091150 -.00000389  00000-0 -72401-5 0  9992","OBJECT_ID":"2020-055AZ","CENTER_NAME":"EARTH","SITE":"AFETR"},{"PERIOD":"95.592","SEMIMAJOR_AXIS":"6925.352","MEAN_ELEMENT_THEORY":"SGP4","MEAN_MOTION_DOT":"0.00001099","COUNTRY_CODE":"US","ECCENTRICITY":"0.00014710","PERIAPSIS":"546.198","GP_ID":"213098347","SITE":"AFETR","OBJECT_ID":"2020-055BA","TLE_LINE1":"1 46075U 20055BA  22263.58941162  .00001099  00000-0  92685-4 0  9998","ARG_OF_PERICENTER":"72.8177","OBJECT_NAME":"STARLINK-1551","CENTER_NAME":"EARTH","REF_FRAME":"TEME","INCLINATION":"53.0578","ELEMENT_SET_NO":"999","MEAN_MOTION":"15.06398831","FILE":"3578832","RCS_SIZE":"LARGE","EPOCH":"2022-09-20T14:08:45.163968","APOAPSIS":"548.236","MEAN_MOTION_DDOT":"0.0000000000000","TIME_SYSTEM":"UTC","REV_AT_EPOCH":"11794","LAUNCH_DATE":"2020-08-07","EPHEMERIS_TYPE":"0","TLE_LINE2":"2 46075  53.0578  20.3558 0001471  72.8177 287.2973 15.06398831117944","BSTAR":"0.00009268500000","MEAN_ANOMALY":"287.2973","DECAY_DATE":null,"CLASSIFICATION_TYPE":"U","RA_OF_ASC_NODE":"20.3558","OBJECT_TYPE":"PAYLOAD","NORAD_CAT_ID":"46075"},{"PERIAPSIS":"546.109","GP_ID":"213121114","PERIOD":"95.592","SEMIMAJOR_AXIS":"6925.349","MEAN_ELEMENT_THEORY":"SGP4","COUNTRY_CODE":"US","ECCENTRICITY":"0.00015950","MEAN_MOTION_DOT":"0.00001135","CENTER_NAME":"EARTH","OBJECT_ID":"2020-055BB","TLE_LINE1":"1 46076U 20055BB  22263.81424873  .00001135  00000-0  95051-4 0  9991","ARG_OF_PERICENTER":"59.7212","OBJECT_NAME":"STARLINK-1552","REF_FRAME":"TEME","SITE":"AFETR","RCS_SIZE":"LARGE","APOAPSIS":"548.319","TIME_SYSTEM":"UTC","MEAN_MOTION_DDOT":"0.0000000000000","EPOCH":"2022-09-20T19:32:31.090272","INCLINATION":"53.0572","MEAN_MOTION":"15.06399867","FILE":"3578945","ELEMENT_SET_NO":"999","BSTAR":"0.00009505100000","TLE_LINE2":"2 46076  53.0572  19.3666 0001595  59.7212 300.3934 15.06399867118493","CLASSIFICATION_TYPE":"U","OBJECT_TYPE":"PAYLOAD","NORAD_CAT_ID":"46076","RA_OF_ASC_NODE":"19.3666","MEAN_ANOMALY":"300.3934","DECAY_DATE":null,"REV_AT_EPOCH":"11849","EPHEMERIS_TYPE":"0","LAUNCH_DATE":"2020-08-07"},{"GP_ID":"213121365","PERIAPSIS":"546.261","COUNTRY_CODE":"US","ECCENTRICITY":"0.00013790","MEAN_MOTION_DOT":"0.00000620","PERIOD":"95.592","MEAN_ELEMENT_THEORY":"SGP4","SEMIMAJOR_AXIS":"6925.351","REF_FRAME":"TEME","CENTER_NAME":"EARTH","TLE_LINE1":"1 46077U 20055BC  22263.79582259  .00000620  00000-0  60507-4 0  9998","OBJECT_ID":"2020-055BC","OBJECT_NAME":"STARLINK-1559","ARG_OF_PERICENTER":"71.9347","SITE":"AFETR","APOAPSIS":"548.171","RCS_SIZE":"LARGE","MEAN_MOTION_DDOT":"0.0000000000000","EPOCH":"2022-09-20T19:05:59.071776","TIME_SYSTEM":"UTC","MEAN_MOTION":"15.06399176","FILE":"3578945","ELEMENT_SET_NO":"999","INCLINATION":"53.0557","CLASSIFICATION_TYPE":"U","OBJECT_TYPE":"PAYLOAD","NORAD_CAT_ID":"46077","RA_OF_ASC_NODE":"19.4434","MEAN_ANOMALY":"288.1792","DECAY_DATE":null,"BSTAR":"0.00006050700000","TLE_LINE2":"2 46077  53.0557  19.4434 0001379  71.9347 288.1792 15.06399176118461","REV_AT_EPOCH":"11846","EPHEMERIS_TYPE":"0","LAUNCH_DATE":"2020-08-07"},{"TLE_LINE2":"2 46078  53.0564  24.0068 0001657  60.9547 299.1608 15.06403196118325","BSTAR":"0.00002407000000","DECAY_DATE":null,"MEAN_ANOMALY":"299.1608","OBJECT_TYPE":"PAYLOAD","NORAD_CAT_ID":"46078","RA_OF_ASC_NODE":"24.0068","CLASSIFICATION_TYPE":"U","LAUNCH_DATE":"2020-08-07","EPHEMERIS_TYPE":"0","REV_AT_EPOCH":"11832","RCS_SIZE":"LARGE","EPOCH":"2022-09-19T18:41:02.151168","APOAPSIS":"548.351","MEAN_MOTION_DDOT":"0.0000000000000","TIME_SYSTEM":"UTC","INCLINATION":"53.0564","ELEMENT_SET_NO":"999","FILE":"3578162","MEAN_MOTION":"15.06403196","OBJECT_NAME":"STARLINK-1563","ARG_OF_PERICENTER":"60.9547","TLE_LINE1":"1 46078U 20055BD  22262.77849712  .00000077  00000-0  24070-4 0  9997","OBJECT_ID":"2020-055BD","CENTER_NAME":"EARTH","REF_FRAME":"TEME","SITE":"AFETR","PERIAPSIS":"546.056","GP_ID":"213029380","MEAN_ELEMENT_THEORY":"SGP4","SEMIMAJOR_AXIS":"6925.339","PERIOD":"95.592","MEAN_MOTION_DOT":"0.00000077","ECCENTRICITY":"0.00016570","COUNTRY_CODE":"US"},{"GP_ID":"213119867","PERIAPSIS":"546.265","COUNTRY_CODE":"US","ECCENTRICITY":"0.00013830","MEAN_MOTION_DOT":"0.00000827","PERIOD":"95.592","SEMIMAJOR_AXIS":"6925.358","MEAN_ELEMENT_THEORY":"SGP4","REF_FRAME":"TEME","CENTER_NAME":"EARTH","OBJECT_ID":"2020-055BE","TLE_LINE1":"1 46079U 20055BE  22263.83267790  .00000827  00000-0  74430-4 0  9994","ARG_OF_PERICENTER":"82.0920","OBJECT_NAME":"STARLINK-1566","SITE":"AFETR","MEAN_MOTION_DDOT":"0.0000000000000","RCS_SIZE":"LARGE","APOAPSIS":"548.181","TIME_SYSTEM":"UTC","EPOCH":"2022-09-20T19:59:03.370560","MEAN_MOTION":"15.06396993","FILE":"3578945","ELEMENT_SET_NO":"999","INCLINATION":"53.0558","CLASSIFICATION_TYPE":"U","OBJECT_TYPE":"PAYLOAD","RA_OF_ASC_NODE":"19.2721","NORAD_CAT_ID":"46079","MEAN_ANOMALY":"278.0226","DECAY_DATE":null,"BSTAR":"0.00007443000000","TLE_LINE2":"2 46079  53.0558  19.2721 0001383  82.0920 278.0226 15.06396993118516","REV_AT_EPOCH":"11851","EPHEMERIS_TYPE":"0","LAUNCH_DATE":"2020-08-07"},{"PERIAPSIS":"546.127","GP_ID":"213120616","MEAN_ELEMENT_THEORY":"SGP4","SEMIMAJOR_AXIS":"6925.353","PERIOD":"95.592","ECCENTRICITY":"0.00015760","COUNTRY_CODE":"US","MEAN_MOTION_DOT":"0.00000043","CENTER_NAME":"EARTH","OBJECT_NAME":"STARLINK-1568","ARG_OF_PERICENTER":"58.5490","TLE_LINE1":"1 46080U 20055BF  22263.65849350  .00000043  00000-0  21763-4 0  9995","OBJECT_ID":"2020-055BF","REF_FRAME":"TEME","SITE":"AFETR","APOAPSIS":"548.310","RCS_SIZE":"LARGE","EPOCH":"2022-09-20T15:48:13.838400","MEAN_MOTION_DDOT":"0.0000000000000","TIME_SYSTEM":"UTC","INCLINATION":"53.0576","FILE":"3578945","MEAN_MOTION":"15.06398415","ELEMENT_SET_NO":"999","BSTAR":"0.00002176300000","TLE_LINE2":"2 46080  53.0576  20.0417 0001576  58.5490 301.5653 15.06398415118465","OBJECT_TYPE":"PAYLOAD","RA_OF_ASC_NODE":"20.0417","NORAD_CAT_ID":"46080","CLASSIFICATION_TYPE":"U","DECAY_DATE":null,"MEAN_ANOMALY":"301.5653","LAUNCH_DATE":"2020-08-07","EPHEMERIS_TYPE":"0","REV_AT_EPOCH":"11846"}];
